NORAD_CAT_ID,OBJECT_NAME,OBJECT_TYPE,EPOCH,MEAN_MOTION,ECCENTRICITY,INCLINATION,RA_OF_ASC_NODE,ARG_OF_PERICENTER,MEAN_ANOMALY,BSTAR,MEAN_MOTION_DOT,MEAN_MOTION_DDOT,TLE_LINE0,TLE_LINE1,TLE_LINE2,SEMIMAJOR_AXIS,PERIOD,APOGEE,PERIGEE,DECAYED
53262.0,STARLINK-4085,PAYLOAD,2024-02-02 09:52:20,15.08848192,0.0001764,53.2186,34.079,106.8292,253.2894,2.7675e-05,1.52e-06,0.0,0 STARLINK-4085,1 53262U 22086W   24033.41135240  .00000152  00000-0  27675-4 0  9997,2 53262  53.2186  34.0790 0001764 106.8292 253.2894 15.08848192 85387,6917.855,95.437,540.941,538.5,0.0
53262.0,STARLINK-4085,PAYLOAD,2024-02-03 03:21:36,15.08836515,0.0001831,53.2181,30.8075,110.9624,249.1564,3.7219e-07,-2.82e-06,0.0,0 STARLINK-4085,1 53262U 22086W   24034.14000150 -.00000282  00000-0  37219-6 0  9991,2 53262  53.2181  30.8075 0001831 110.9624 249.1564 15.08836515 85319,6917.891,95.438,541.023,538.489,0.0
53262.0,STARLINK-4085,PAYLOAD,2024-02-03 06:32:22,15.08836797,0.0001663,53.2189,30.214,100.5044,259.6136,1.093e-05,-1.14e-06,0.0,0 STARLINK-4085,1 53262U 22086W   24034.27248244 -.00000114  00000-0  10930-4 0  9996,2 53262  53.2189  30.2140 0001663 100.5044 259.6136 15.08836797 85513,6917.89,95.438,540.906,538.605,0.0
53262.0,STARLINK-4085,PAYLOAD,2024-02-04 09:33:55,15.08845167,0.0001668,53.2191,25.157,106.863,253.2545,4.47e-05,4.24e-06,0.0,0 STARLINK-4085,1 53262U 22086W   24035.39855787  .00000424  00000-0  44700-4 0  9991,2 53262  53.2191  25.1570 0001668 106.8630 253.2545 15.08845167 85505,6917.865,95.437,540.883,538.576,0.0
53262.0,STARLINK-4085,PAYLOAD,2024-02-05 04:38:33,15.08837494,0.0001572,53.2187,21.5866,90.4216,269.6956,6.1791e-05,6.95e-06,0.0,0 STARLINK-4085,1 53262U 22086W   24036.19344432  .00000695  00000-0  61791-4 0  9999,2 53262  53.2187  21.5866 0001572  90.4216 269.6956 15.08837494 85624,6917.888,95.438,540.841,538.666,0.0
53262.0,STARLINK-4085,PAYLOAD,2024-02-05 07:49:19,15.08843496,0.0001652,53.2188,20.991,88.8606,271.2576,7.1049e-05,8.43e-06,0.0,0 STARLINK-4085,1 53262U 22086W   24036.32592095  .00000843  00000-0  71049-4 0  9996,2 53262  53.2188  20.9910 0001652  88.8606 271.2576 15.08843496 85829,6917.87,95.437,540.878,538.592,0.0
53262.0,STARLINK-4085,PAYLOAD,2024-02-06 06:04:43,15.0884703,0.0001814,53.2197,16.8328,76.0383,284.0811,8.1736e-05,1.013e-05,0.0,0 STARLINK-4085,1 53262U 22086W   24037.25328134  .00001013  00000-0  81736-4 0  9994,2 53262  53.2197  16.8328 0001814  76.0383 284.0811 15.08847030 85784,6917.859,95.437,540.979,538.469,0.0
53262.0,STARLINK-4085,PAYLOAD,2024-02-07 04:20:07,15.08843555,0.0001818,53.2201,12.6701,77.8964,282.2232,8.7411e-05,1.103e-05,0.0,0 STARLINK-4085,1 53262U 22086W   24038.18064197  .00001103  00000-0  87411-4 0  9999,2 53262  53.2201  12.6701 0001818  77.8964 282.2232 15.08843555 85928,6917.87,95.437,540.992,538.477,0.0
53262.0,STARLINK-4085,PAYLOAD,2024-02-07 07:30:53,15.08847091,0.0001927,53.2209,12.0677,73.0324,287.088,9.6972e-05,1.256e-05,0.0,0 STARLINK-4085,1 53262U 22086W   24038.31311917  .00001256  00000-0  96972-4 0  9990,2 53262  53.2209  12.0677 0001927  73.0324 287.0880 15.08847091 86125,6917.859,95.437,541.057,538.391,0.0
53262.0,STARLINK-4085,PAYLOAD,2024-02-07 15:27:50,15.08834603,0.0001954,53.2202,10.5883,70.3598,289.7605,-2.9417e-06,-3.35e-06,0.0,0 STARLINK-4085,1 53262U 22086W   24038.64433060 -.00000335  00000-0 -29417-5 0  9990,2 53262  53.2202  10.5883 0001954  70.3598 289.7605 15.08834603 85996,6917.897,95.438,541.114,538.41,0.0
53262.0,STARLINK-4085,PAYLOAD,2024-02-08 07:21:41,15.08843751,0.0001819,53.2191,7.6107,76.4951,283.6244,2.4452e-05,1.01e-06,0.0,0 STARLINK-4085,1 53262U 22086W   24039.30672518  .00000101  00000-0  24452-4 0  9999,2 53262  53.2191   7.6107 0001819  76.4951 283.6244 15.08843751 86097,6917.869,95.437,540.992,538.476,0.0
53262.0,STARLINK-4085,PAYLOAD,2024-02-09 04:01:41,15.0884991,0.0001666,53.2205,3.7475,89.3574,270.7609,5.5411e-05,5.94e-06,0.0,0 STARLINK-4085,1 53262U 22086W   24040.16783943  .00000594  00000-0  55411-4 0  9995,2 53262  53.2205   3.7475 0001666  89.3574 270.7609 15.08849910 86402,6917.85,95.437,540.868,538.563,0.0
53262.0,STARLINK-4085,PAYLOAD,2024-02-10 03:52:29,15.08839005,0.0001429,53.219,359.2885,104.8362,255.2789,5.1238e-05,5.28e-06,0.0,0 STARLINK-4085,1 53262U 22086W   24041.16144953  .00000528  00000-0  51238-4 0  9998,2 53262  53.2190 359.2885 0001429 104.8362 255.2789 15.08839005 86371,6917.883,95.438,540.737,538.76,0.0
53262.0,STARLINK-4085,PAYLOAD,2024-02-10 07:03:15,15.08842089,0.0001321,53.2187,358.6926,96.4032,263.7111,0.00010195,1.335e-05,0.0,0 STARLINK-4085,1 53262U 22086W   24041.29392862  .00001335  00000-0  10195-3 0  9999,2 53262  53.2187 358.6926 0001321  96.4032 263.7111 15.08842089 86578,6917.874,95.437,540.653,538.825,0.0
53262.0,STARLINK-4085,PAYLOAD,2024-02-10 21:21:43,15.08843465,0.0001505,53.2179,356.0148,123.158,236.9557,-6.3241e-05,-1.294e-05,0.0,0 STARLINK-4085,1 53262U 22086W   24041.89008924 -.00001294  00000-0 -63241-4 0  9995,2 53262  53.2179 356.0148 0001505 123.1580 236.9557 15.08843465 86662,6917.87,95.437,540.776,538.694,0.0
53262.0,STARLINK-4085,PAYLOAD,2024-02-11 03:43:15,15.08853478,0.0001389,53.2185,354.8273,115.719,244.3946,0.00017017,2.422e-05,0.0,0 STARLINK-4085,1 53262U 22086W   24042.15504275  .00002422  00000-0  17017-3 0  9996,2 53262  53.2185 354.8273 0001389 115.7190 244.3946 15.08853478 86523,6917.839,95.437,540.665,538.743,0.0
53262.0,STARLINK-4085,PAYLOAD,2024-02-12 01:58:39,15.08842781,0.0001611,53.2186,350.6655,123.5088,236.6058,9.2276e-05,1.181e-05,0.0,0 STARLINK-4085,1 53262U 22086W   24043.08240701  .00001181  00000-0  92276-4 0  9992,2 53262  53.2186 350.6655 0001611 123.5088 236.6058 15.08842781 86661,6917.872,95.437,540.851,538.622,0.0
53262.0,STARLINK-4085,PAYLOAD,2024-02-12 21:03:18,15.08837963,0.0001151,53.2176,347.0967,109.1522,250.9594,-2.4905e-05,-6.84e-06,0.0,0 STARLINK-4085,1 53262U 22086W   24043.87729633 -.00000684  00000-0 -24905-4 0  9998,2 53262  53.2176 347.0967 0001151 109.1522 250.9594 15.08837963 86961,6917.887,95.438,540.548,538.955,0.0
53262.0,STARLINK-4085,PAYLOAD,2024-02-13 03:24:51,15.08837532,0.0001348,53.2182,345.9103,98.2751,261.8394,-2.3596e-05,-6.63e-06,0.0,0 STARLINK-4085,1 53262U 22086W   24044.14225751 -.00000663  00000-0 -23596-4 0  9993,2 53262  53.2182 345.9103 0001348  98.2751 261.8394 15.08837532 86823,6917.888,95.438,540.685,538.82,0.0
53262.0,STARLINK-4085,PAYLOAD,2024-02-13 12:57:09,15.08844668,0.0001374,53.2197,344.1245,95.7709,264.344,-6.5699e-05,-1.334e-05,0.0,0 STARLINK-4085,1 53262U 22086W   24044.53969381 -.00001334  00000-0 -65699-4 0  9996,2 53262  53.2197 344.1245 0001374  95.7709 264.3440 15.08844668 87066,6917.866,95.437,540.682,538.781,0.0
53262.0,STARLINK-4085,PAYLOAD,2024-02-13 19:18:42,15.08840846,0.0001559,53.2193,342.9368,108.1435,251.9727,-1.3071e-05,-4.96e-06,0.0,0 STARLINK-4085,1 53262U 22086W   24044.80465722 -.00000496  00000-0 -13071-4 0  9991,2 53262  53.2193 342.9368 0001559 108.1435 251.9727 15.08840846 87103,6917.878,95.438,540.821,538.664,0.0
53262.0,STARLINK-4085,PAYLOAD,2024-02-14 04:51:00,15.08851588,0.0001263,53.2177,341.1465,90.7427,269.371,0.00021004,3.058e-05,0.0,0 STARLINK-4085,1 53262U 22086W   24045.20208397  .00003058  00000-0  21004-3 0  9998,2 53262  53.2177 341.1465 0001263  90.7427 269.3710 15.08851588 86988,6917.845,95.437,540.584,538.836,0.0
53262.0,STARLINK-4085,PAYLOAD,2024-02-14 19:09:29,15.08835957,0.0001571,53.2191,338.4768,81.4662,278.6508,8.9276e-05,1.133e-05,0.0,0 STARLINK-4085,1 53262U 22086W   24045.79825982  .00001133  00000-0  89276-4 0  9995,2 53262  53.2191 338.4768 0001571  81.4662 278.6508 15.08835957 87070,6917.893,95.438,540.845,538.671,0.0
53262.0,STARLINK-4085,PAYLOAD,2024-02-15 03:06:24,15.08841637,0.0001569,53.2174,336.9881,98.6352,261.4818,0.00013849,1.917e-05,0.0,0 STARLINK-4085,1 53262U 22086W   24046.12945382  .00001917  00000-0  13849-3 0  9992,2 53262  53.2174 336.9881 0001569  98.6352 261.4818 15.08841637 87125,6917.875,95.437,540.826,538.655,0.0
53262.0,STARLINK-4085,PAYLOAD,2024-02-15 19:00:16,15.08833094,0.0001596,53.2196,334.015,90.67,269.4475,8.4841e-05,1.062e-05,0.0,0 STARLINK-4085,1 53262U 22086W   24046.79186247  .00001062  00000-0  84841-4 0  9994,2 53262  53.2196 334.0150 0001596  90.6700 269.4475 15.08833094 87222,6917.901,95.438,540.871,538.662,0.0
53262.0,STARLINK-4085,PAYLOAD,2024-02-16 01:21:49,15.08841981,0.0001381,53.218,332.8244,93.7871,266.3279,1.6348e-06,-2.62e-06,0.0,0 STARLINK-4085,1 53262U 22086W   24047.05681887 -.00000262  00000-0  16348-5 0  9994,2 53262  53.2180 332.8244 0001381  93.7871 266.3279 15.08841981 87266,6917.874,95.437,540.695,538.784,0.0
53262.0,STARLINK-4085,PAYLOAD,2024-02-16 12:29:30,15.08845005,0.0001457,53.2174,330.7425,94.0334,266.0825,-7.3534e-05,-1.458e-05,0.0,0 STARLINK-4085,1 53262U 22086W   24047.52049709 -.00001458  00000-0 -73534-4 0  9995,2 53262  53.2174 330.7425 0001457  94.0334 266.0825 15.08845005 87512,6917.865,95.437,540.738,538.722,0.0
53262.0,STARLINK-4085,PAYLOAD,2024-02-16 22:01:49,15.08844065,0.0001422,53.2165,328.9583,98.96,261.1553,3.8058e-05,3.18e-06,0.0,0 STARLINK-4085,1 53262U 22086W   24047.91793601  .00000318  00000-0  38058-4 0  9999,2 53262  53.2165 328.9583 0001422  98.9600 261.1553 15.08844065 87572,6917.868,95.437,540.717,538.749,0.0
53262.0,STARLINK-4085,PAYLOAD,2024-02-17 04:23:21,15.08849472,0.0001453,53.218,327.7698,96.5443,263.5714,9.7619e-05,1.266e-05,0.0,0 STARLINK-4085,1 53262U 22086W   24048.18289130  .00001266  00000-0  97619-4 0  9997,2 53262  53.2180 327.7698 0001453  96.5443 263.5714 15.08849472 87433,6917.851,95.437,540.722,538.711,0.0
53262.0,STARLINK-4085,PAYLOAD,2024-02-17 21:52:36,15.0884007,0.000137,53.2186,324.4989,98.8323,261.2824,7.4408e-05,8.96e-06,0.0,0 STARLINK-4085,1 53262U 22086W   24048.91153826  .00000896  00000-0  74408-4 0  9999,2 53262  53.2186 324.4989 0001370  98.8323 261.2824 15.08840070 87720,6917.88,95.438,540.693,538.797,0.0
